STARLINK-33973          
1 63894C 25095E   26185.99423611  .00038464  00000+0  13922-2 0  1858
2 63894  43.0003 233.3335 0001910 267.3270  62.0186 15.27582275    10
STARLINK-34119          
1 63895C 25095F   26185.98798611  .00036709  00000+0  13316-2 0  1850
2 63895  43.0013 234.0298 0001410 248.7270 130.4059 15.27510913    15
STARLINK-34143          
1 63896C 25095G   26186.02756944 -.00089439  00000+0 -32422-2 0  1860
2 63896  42.9988 233.4634 0001485 260.6137 117.9052 15.27595304    19
STARLINK-33957          
1 63897C 25095H   26185.98173611  .00033629  00000+0  12175-2 0  1859
2 63897  43.0015 234.1180 0001861 265.9014  57.4977 15.27576201    16
STARLINK-34120          
1 63898C 25095J   26186.03520833  .00040079  00000+0  14508-2 0  1869
2 63898  43.0007 233.0496 0001832 274.3795 301.7923 15.27576770    11
STARLINK-34134          
1 63899C 25095K   26185.95048611  .00020096  00000+0  72729-3 0  1855
2 63899  42.9999 234.1047 0001474 264.7966 324.3518 15.27594203    11
STARLINK-34118          
1 63900C 25095L   26186.00812500  .00036249  00000+0  13110-2 0  1867
2 63900  43.0012 233.8646 0001594 271.8242 239.2475 15.27608957    10
STARLINK-34125          
1 63901C 25095M   26185.95118056  .00020141  00000+0  72923-3 0  1857
2 63901  42.9986 233.9969 0001523 273.6013   1.8348 15.27580067    19
STARLINK-33955          
1 63902C 25095N   26186.00465278  .00041599  00000+0  15060-2 0  1865
2 63902  43.0001 233.3062 0001742 268.6097 103.9595 15.27573410    19
STARLINK-34097          
1 63903C 25095P   26185.96923611  .00029104  00000+0  10532-2 0  1856
2 63903  42.9990 233.7577 0001427 268.3335 163.0797 15.27592737    16
STARLINK-34092          
1 63904C 25095Q   26186.00534722  .00037607  00000+0  13616-2 0  1868
2 63904  43.0014 233.9473 0001611 260.3278 207.2064 15.27570972    11
STARLINK-34114          
1 63905C 25095R   26186.01993056  .00037016  00000+0  13397-2 0  1869
2 63905  43.0017 233.9710 0001970 267.2644 238.1075 15.27583309    13
STARLINK-33770          
1 63906C 25095S   26185.98659722  .00030516  00000+0  11045-2 0  1859
2 63906  42.9990 233.5231 0001649 265.4138 318.2014 15.27585293    14
STARLINK-34106          
1 63907C 25095T   26186.05118056  .00041610  00000+0  15064-2 0  1862
2 63907  42.9991 233.1044 0001553 271.1244 329.2970 15.27572704    16
STARLINK-34083          
1 63908C 25095U   26185.99145833  .00038695  00000+0  14008-2 0  1853
2 63908  43.0017 234.0783 0001566 270.5939  99.2625 15.27575752    13
STARLINK-34066          
1 63909C 25095V   26186.01159722  .00036968  00000+0  13393-2 0  1868
2 63909  43.0000 233.7741 0001465 266.7378 291.8869 15.27552747    17
STARLINK-34071          
1 63910C 25095W   26186.02131944  .00038297  00000+0  13865-2 0  1868
2 63910  43.0013 233.8056 0001595 269.5662 307.1417 15.27573046    19
STARLINK-34038          
1 63911C 25095X   26185.98034722  .00033739  00000+0  12218-2 0  1855
2 63911  42.9987 233.8478 0001542 273.8237 155.1323 15.27568669    16
STARLINK-34031          
1 63912C 25095Y   26186.01784722  .00041081  00000+0  14877-2 0  1866
2 63912  42.9991 233.6866 0001429 258.1245 356.0482 15.27563337    15
STARLINK-34070          
1 63913C 25095Z   26185.97618056  .00032482  00000+0  11759-2 0  1857
2 63913  42.9987 233.8186 0001605 262.0219 165.2179 15.27579541    16
STARLINK-34068          
1 63914C 25095AA  26185.97756944  .00028826  00000+0  10435-2 0  1854
2 63914  42.9990 233.6733 0001527 263.5049 227.9754 15.27582601    13
STARLINK-34076          
1 63915C 25095AB  26186.02131944  .00045873  00000+0  16604-2 0  1865
2 63915  42.9988 233.5116 0001226 264.9938  71.9166 15.27578463    18
STARLINK-33910          
1 63916C 25095AC  26185.94631944  .00018829  00000+0  68234-3 0  1858
2 63916  43.0000 233.6483 0001566 263.8582 140.4558 15.27551386    16
STARLINK-34075          
1 63917C 25095AD  26185.96506944  .00026248  00000+0  95022-3 0  1851
2 63917  42.9989 233.6927 0001461 264.8087 179.0699 15.27581954    17
STARLINK-34012          
1 63926C 25098A   26185.96854167 -.00020228  00000+0 -16957-2 0  1850
2 63926  70.0022 338.8805 0003085 272.1359 196.4872 14.98330649    14
STARLINK-33956          
1 63927C 25098B   26186.02131944 -.00043682  00000+0 -36605-2 0  1862
2 63927  70.0025 338.4657 0003041 265.8498  14.8621 14.98354586    15
STARLINK-33997          
1 63928C 25098C   26186.05048611 -.00047533  00000+0 -39849-2 0  1866
2 63928  70.0025 338.7408 0003321 269.8312 213.1421 14.98340536    15
STARLINK-33989          
1 63929C 25098D   26186.01715278 -.00043990  00000+0 -36877-2 0  1864
2 63929  70.0024 338.6811 0003014 274.4195 162.9734 14.98341531    16
STARLINK-33980          
1 63930C 25098E   26186.01298611 -.00043194  00000+0 -36207-2 0  1866
2 63930  70.0024 338.8182 0003241 269.8659  33.3959 14.98342643    11
STARLINK-33994          
1 63931C 25098F   26185.97826389 -.00032834  00000+0 -27523-2 0  1859
2 63931  70.0025 338.7538 0002750 271.7833 338.4191 14.98338665    13
STARLINK-33971          
1 63932C 25098G   26185.98451389 -.00026500  00000+0 -22214-2 0  1850
2 63932  70.0022 338.8661 0003162 272.6840 258.6677 14.98332622    14
STARLINK-33877          
1 63933C 25098H   26186.03034722 -.00046664  00000+0 -39120-2 0  1864
2 63933  70.0024 338.4622 0002745 274.0136  32.0938 14.98341219    16
STARLINK-33895          
1 63934C 25098J   26186.03729167 -.00048004  00000+0 -40227-2 0  1869
2 63934  70.0025 338.5025 0003276 269.7415  28.6746 14.98356700    16
STARLINK-34005          
1 63935C 25098K   26186.04840278 -.00047623  00000+0 -39924-2 0  1866
2 63935  70.0024 338.7212 0003168 270.8432 222.5132 14.98340660    10
STARLINK-34027          
1 63936C 25098L   26185.99909722 -.00033105  00000+0 -27751-2 0  1854
2 63936  70.0025 338.4955 0003197 271.9954 270.6098 14.98337379    14
STARLINK-34035          
1 63937C 25098M   26186.04284722 -.00048936  00000+0 -41025-2 0  1867
2 63937  70.0024 338.5630 0003004 270.2415 350.7323 14.98341588    14
STARLINK-33988          
1 63938C 25098N   26186.03937500 -.00046992  00000+0 -39394-2 0  1862
2 63938  70.0023 338.6498 0003212 268.9010 266.7094 14.98340953    19
STARLINK-34020          
1 63939C 25098P   26186.01090278 -.00036646  00000+0 -30703-2 0  1863
2 63939  70.0027 338.5433 0003244 269.2262 269.4420 14.98358513    14
STARLINK-34021          
1 63940C 25098Q   26186.00604167 -.00037181  00000+0 -31169-2 0  1864
2 63940  70.0025 338.8523 0002855 273.4793 328.9385 14.98338174    12
STARLINK-34004          
1 63941C 25098R   26186.03659722 -.00047576  00000+0 -39882-2 0  1864
2 63941  70.0025 338.5217 0002863 271.9971   0.2914 14.98343923    16
STARLINK-34014          
1 63942C 25098S   26186.00743056 -.00038535  00000+0 -32300-2 0  1869
2 63942  70.0023 338.6242 0003066 273.1583 180.2260 14.98342044    19
STARLINK-33985          
1 63943C 25098T   26185.99284722 -.00034236  00000+0 -28698-2 0  1855
2 63943  70.0023 338.5528 0003172 271.7570 193.0283 14.98338356    12
STARLINK-33996          
1 63944C 25098U   26186.00256944 -.00041028  00000+0 -34394-2 0  1862
2 63944  70.0022 338.7419 0003033 273.2698  62.9732 14.98339565    13
STARLINK-34036          
1 63945C 25098V   26185.99354167 -.00040590  00000+0 -34024-2 0  1858
2 63945  70.0023 338.8167 0003128 270.3936 332.1478 14.98342213    17
STARLINK-34039          
1 63946C 25098W   26185.95326389 -.00018505  00000+0 -15512-2 0  1852
2 63946  70.0021 338.8924 0003350 266.0231 141.8391 14.98329733    15
STARLINK-34034          
1 63947C 25098X   26186.04145833 -.00047204  00000+0 -39575-2 0  1861
2 63947  70.0021 338.6688 0002571 272.8247 251.5071 14.98338969    12
STARLINK-33983          
1 63948C 25098Y   26185.99562500 -.00035672  00000+0 -29901-2 0  1856
2 63948  70.0023 338.6547 0002912 270.4536 118.3788 14.98341189    16
STARLINK-33993          
1 63949C 25098Z   26185.99701389 -.00029757  00000+0 -24935-2 0  1856
2 63949  70.0025 338.5170 0002926 265.7771 242.9783 14.98349565    18
STARLINK-33962          
1 63950C 25098AA  26186.04423611 -.00049656  00000+0 -41627-2 0  1862
2 63950  70.0027 338.4562 0002918 275.2106  84.1681 14.98343064    16
STARLINK-33998          
1 63951C 25098AB  26185.99840278 -.00040020  00000+0 -33549-2 0  1857
2 63951  70.0026 338.5980 0003233 271.1205 178.6030 14.98338923    12
STARLINK-34159          
1 63952C 25099A   26185.99145833  .00037806  00000+0  13686-2 0  1850
2 63952  43.0012 234.0580 0001830 271.5916  55.9314 15.27576250    10
STARLINK-34137          
1 63953C 25099B   26185.98312500  .00036324  00000+0  13148-2 0  1854
2 63953  43.0011 233.8621 0001485 263.2978 117.3838 15.27581269    15
STARLINK-33974          
1 63954C 25099C   26185.97756944  .00026105  00000+0  94482-3 0  1855
2 63954  43.0000 234.2372 0001826 266.1543 302.4298 15.27588598    10
STARLINK-34170          
1 63955C 25099D   26185.98937500  .00033642  00000+0  12177-2 0  1850
2 63955  43.0006 234.1209 0001876 266.1922  28.6207 15.27581471    11
STARLINK-34187          
1 63956C 25099E   26186.04354167  .00044606  00000+0  16146-2 0  1864
2 63956  43.0015 233.7290 0002456 267.7513   0.6813 15.27575636    14
STARLINK-34142          
1 63957C 25099F   26186.02687500  .00037943  00000+0  13738-2 0  1863
2 63957  43.0016 233.7710 0001553 272.7054 285.1779 15.27570811    17
STARLINK-34144          
1 63958C 25099G   26185.96159722  .00022831  00000+0  82808-3 0  1850
2 63958  43.0015 234.0848 0001749 281.2701 298.3685 15.27521176    16
STARLINK-34099          
1 63959C 25099H   26186.03729167  .00038316  00000+0  13867-2 0  1860
2 63959  43.0007 233.8146 0001867 267.0382 305.7403 15.27584287    17
STARLINK-34107          
1 63960C 25099J   26186.05743056  .00046018  00000+0  16664-2 0  1863
2 63960  43.0013 233.4911 0001413 269.0360 139.5605 15.27562474    18
